{
    "links": {
        "self": "http://www.neowsapp.com/rest/v1/neo/3752446?api_key=iIulBulltgU6a56xZRHN4H3l9WmuAYTsLGpBGhQ2"
    },
    "id": "3752446",
    "neo_reference_id": "3752446",
    "name": "(2016 HP3)",
    "designation": "2016 HP3",
    "nasa_jpl_url": "http://ssd.jpl.nasa.gov/sbdb.cgi?sstr=3752446",
    "absolute_magnitude_h": 23.7,
    "estimated_diameter": {
        "kilometers": {
            "estimated_diameter_min": 0.0483676488,
            "estimated_diameter_max": 0.1081533507
        },
        "meters": {
            "estimated_diameter_min": 48.3676488219,
            "estimated_diameter_max": 108.1533506775
        },
        "miles": {
            "estimated_diameter_min": 0.0300542543,
            "estimated_diameter_max": 0.0672033557
        },
        "feet": {
            "estimated_diameter_min": 158.6865169607,
            "estimated_diameter_max": 354.8338390368
        }
    },
    "is_potentially_hazardous_asteroid": false,
    "close_approach_data": [
        {
            "close_approach_date": "2000-12-11",
            "close_approach_date_full": "2000-Dec-11 17:08",
            "epoch_date_close_approach": 976554480000,
            "relative_velocity": {
                "kilometers_per_second": "13.7081004805",
                "kilometers_per_hour": "49349.1617298252",
                "miles_per_hour": "30663.6499648461"
            },
            "miss_distance": {
                "astronomical": "0.0722081546",
                "lunar": "28.0889721394",
                "kilometers": "10802186.124790702",
                "miles": "6712167.2106156076"
            },
            "orbiting_body": "Mars"
        },
        {
            "close_approach_date": "2016-05-25",
            "close_approach_date_full": "2016-May-25 10:46",
            "epoch_date_close_approach": 1464173160000,
            "relative_velocity": {
                "kilometers_per_second": "9.3341449626",
                "kilometers_per_hour": "33602.9218653236",
                "miles_per_hour": "20879.5488668173"
            },
            "miss_distance": {
                "astronomical": "0.0469321167",
                "lunar": "18.2565933963",
                "kilometers": "7020944.692911429",
                "miles": "4362612.7351345602"
            },
            "orbiting_body": "Earth"
        },
        {
            "close_approach_date": "2035-08-16",
            "close_approach_date_full": "2035-Aug-16 09:08",
            "epoch_date_close_approach": 2070868080000,
            "relative_velocity": {
                "kilometers_per_second": "19.4400619444",
                "kilometers_per_hour": "69984.2229997997",
                "miles_per_hour": "43485.4745634033"
            },
            "miss_distance": {
                "astronomical": "0.3695562047",
                "lunar": "143.7573636283",
                "kilometers": "55284821.068403989",
                "miles": "34352394.8701894882"
            },
            "orbiting_body": "Earth"
        },
        {
            "close_approach_date": "2039-04-30",
            "close_approach_date_full": "2039-Apr-30 01:03",
            "epoch_date_close_approach": 2187738180000,
            "relative_velocity": {
                "kilometers_per_second": "18.2432398864",
                "kilometers_per_hour": "65675.6635911498",
                "miles_per_hour": "40808.3033019564"
            },
            "miss_distance": {
                "astronomical": "0.3500031284",
                "lunar": "136.1512169476",
                "kilometers": "52359722.501976508",
                "miles": "32534822.9029434904"
            },
            "orbiting_body": "Earth"
        },
        {
            "close_approach_date": "2119-08-18",
            "close_approach_date_full": "2119-Aug-18 23:43",
            "epoch_date_close_approach": 4721845380000,
            "relative_velocity": {
                "kilometers_per_second": "17.8639461119",
                "kilometers_per_hour": "64310.2060029394",
                "miles_per_hour": "39959.8610577708"
            },
            "miss_distance": {
                "astronomical": "0.2739489877",
                "lunar": "106.5661562153",
                "kilometers": "40982185.048576199",
                "miles": "25465148.9545375862"
            },
            "orbiting_body": "Earth"
        }
    ],
    "orbital_data": {
        "orbit_id": "29",
        "orbit_determination_date": "2017-04-06 08:26:20",
        "first_observation_date": "2016-04-28",
        "last_observation_date": "2016-05-28",
        "data_arc_in_days": 30,
        "observations_used": 125,
        "orbit_uncertainty": "6",
        "minimum_orbit_intersection": ".0446643",
        "jupiter_tisserand_invariant": "3.238",
        "epoch_osculation": "2459000.5",
        "eccentricity": ".5903975880374933",
        "semi_major_axis": "2.437182044165513",
        "inclination": "2.937777387757976",
        "ascending_node_longitude": "190.2786979446052",
        "orbital_period": "1389.729836472275",
        "perihelion_distance": ".9982756436819066",
        "perihelion_argument": "77.66876209388836",
        "aphelion_distance": "3.876088444649119",
        "perihelion_time": "2458943.299763927506",
        "mean_anomaly": "14.81732955980093",
        "mean_motion": ".2590431539656896",
        "equinox": "J2000",
        "orbit_class": {
            "orbit_class_type": "APO",
            "orbit_class_description": "Near-Earth asteroid orbits which cross the Earth’s orbit similar to that of 1862 Apollo",
            "orbit_class_range": "a (semi-major axis) > 1.0 AU; q (perihelion) < 1.017 AU"
        }
    },
    "is_sentry_object": false
}